[{"OBJECT_NAME":"DELTA 2 R/B","OBJECT_ID":"1999-041E","EPOCH":"2026-03-03T01:41:23.443872","MEAN_MOTION":14.11813362,"ECCENTRICITY":0.0502356,"INCLINATION":51.7651,"RA_OF_ASC_NODE":327.7179,"ARG_OF_PERICENTER":328.8923,"MEAN_ANOMALY":28.3138,"EPHEMERIS_TYPE":0,"CLASSIFICATION_TYPE":"U","NORAD_CAT_ID":25876,"ELEMENT_SET_NO":999,"REV_AT_EPOCH":36209,"BSTAR":0.00031034,"MEAN_MOTION_DOT":1.695e-5,"MEAN_MOTION_DDOT":0},{"OBJECT_NAME":"HELIOS 1B","OBJECT_ID":"1999-064A","EPOCH":"2026-03-03T02:56:16.649952","MEAN_MOTION":14.8766442,"ECCENTRICITY":0.0002519,"INCLINATION":98.1704,"RA_OF_ASC_NODE":324.1726,"ARG_OF_PERICENTER":83.9486,"MEAN_ANOMALY":276.2016,"EPHEMERIS_TYPE":0,"CLASSIFICATION_TYPE":"U","NORAD_CAT_ID":25977,"ELEMENT_SET_NO":999,"REV_AT_EPOCH":68428,"BSTAR":0.00025521,"MEAN_MOTION_DOT":2.265e-5,"MEAN_MOTION_DDOT":0},{"OBJECT_NAME":"TERRA","OBJECT_ID":"1999-068A","EPOCH":"2026-03-03T03:12:29.210688","MEAN_MOTION":14.61006268,"ECCENTRICITY":0.0002257,"INCLINATION":97.9607,"RA_OF_ASC_NODE":115.8185,"ARG_OF_PERICENTER":167.8691,"MEAN_ANOMALY":217.2698,"EPHEMERIS_TYPE":0,"CLASSIFICATION_TYPE":"U","NORAD_CAT_ID":25994,"ELEMENT_SET_NO":999,"REV_AT_EPOCH":39412,"BSTAR":0.00011359,"MEAN_MOTION_DOT":5.13e-6,"MEAN_MOTION_DDOT":0},{"OBJECT_NAME":"SL-16 R/B","OBJECT_ID":"2000-006B","EPOCH":"2026-03-03T03:49:22.920384","MEAN_MOTION":14.15824224,"ECCENTRICITY":0.0017234,"INCLINATION":71.0013,"RA_OF_ASC_NODE":111.5695,"ARG_OF_PERICENTER":199.1869,"MEAN_ANOMALY":160.8607,"EPHEMERIS_TYPE":0,"CLASSIFICATION_TYPE":"U","NORAD_CAT_ID":26070,"ELEMENT_SET_NO":999,"REV_AT_EPOCH":34763,"BSTAR":0.00014621,"MEAN_MOTION_DOT":2.4e-6,"MEAN_MOTION_DDOT":0},{"OBJECT_NAME":"TITAN 4B R/B","OBJECT_ID":"2000-047B","EPOCH":"2026-03-03T03:17:03.516000","MEAN_MOTION":15.09484626,"ECCENTRICITY":0.0037956,"INCLINATION":67.9882,"RA_OF_ASC_NODE":58.9354,"ARG_OF_PERICENTER":43.1985,"MEAN_ANOMALY":317.2131,"EPHEMERIS_TYPE":0,"CLASSIFICATION_TYPE":"U","NORAD_CAT_ID":26474,"ELEMENT_SET_NO":999,"REV_AT_EPOCH":39192,"BSTAR":0.0003057,"MEAN_MOTION_DOT":4.858e-5,"MEAN_MOTION_DDOT":0},{"OBJECT_NAME":"ENVISAT","OBJECT_ID":"2002-009A","EPOCH":"2026-03-02T20:36:28.375200","MEAN_MOTION":14.39033896,"ECCENTRICITY":0.0001346,"INCLINATION":98.3717,"RA_OF_ASC_NODE":15.6191,"ARG_OF_PERICENTER":84.9534,"MEAN_ANOMALY":290.497,"EPHEMERIS_TYPE":0,"CLASSIFICATION_TYPE":"U","NORAD_CAT_ID":27386,"ELEMENT_SET_NO":999,"REV_AT_EPOCH":25819,"BSTAR":6.4555552e-5,"MEAN_MOTION_DOT":1.57e-6,"MEAN_MOTION_DDOT":0},{"OBJECT_NAME":"IDEFIX & ARIANE 42P R/B","OBJECT_ID":"2002-021B","EPOCH":"2026-03-02T18:48:17.290944","MEAN_MOTION":14.31020279,"ECCENTRICITY":0.00111815,"INCLINATION":98.5864,"RA_OF_ASC_NODE":0.4726,"ARG_OF_PERICENTER":203.1585,"MEAN_ANOMALY":156.9095,"EPHEMERIS_TYPE":0,"CLASSIFICATION_TYPE":"U","NORAD_CAT_ID":27422,"ELEMENT_SET_NO":999,"REV_AT_EPOCH":24303,"BSTAR":0.00014692373,"MEAN_MOTION_DOT":3.43e-6,"MEAN_MOTION_DDOT":0},{"OBJECT_NAME":"AQUA","OBJECT_ID":"2002-022A","EPOCH":"2026-03-03T04:21:29.172096","MEAN_MOTION":14.61957361,"ECCENTRICITY":6.83e-5,"INCLINATION":98.4163,"RA_OF_ASC_NODE":29.4285,"ARG_OF_PERICENTER":58.4731,"MEAN_ANOMALY":357.181,"EPHEMERIS_TYPE":0,"CLASSIFICATION_TYPE":"U","NORAD_CAT_ID":27424,"ELEMENT_SET_NO":999,"REV_AT_EPOCH":26778,"BSTAR":0.00025624,"MEAN_MOTION_DOT":1.234e-5,"MEAN_MOTION_DDOT":0},{"OBJECT_NAME":"CZ-4B R/B","OBJECT_ID":"2002-024C","EPOCH":"2026-03-03T03:10:53.554656","MEAN_MOTION":14.14546187,"ECCENTRICITY":0.005077,"INCLINATION":98.8853,"RA_OF_ASC_NODE":115.5719,"ARG_OF_PERICENTER":42.637,"MEAN_ANOMALY":336.7091,"EPHEMERIS_TYPE":0,"CLASSIFICATION_TYPE":"U","NORAD_CAT_ID":27432,"ELEMENT_SET_NO":999,"REV_AT_EPOCH":22831,"BSTAR":5.0918e-5,"MEAN_MOTION_DOT":5.5e-7,"MEAN_MOTION_DDOT":0},{"OBJECT_NAME":"MIDORI II (ADEOS-II)","OBJECT_ID":"2002-056A","EPOCH":"2026-03-02T20:57:26.358336","MEAN_MOTION":14.29278655,"ECCENTRICITY":0.0001828,"INCLINATION":98.7758,"RA_OF_ASC_NODE":20.3043,"ARG_OF_PERICENTER":52.5235,"MEAN_ANOMALY":307.6112,"EPHEMERIS_TYPE":0,"CLASSIFICATION_TYPE":"U","NORAD_CAT_ID":27597,"ELEMENT_SET_NO":999,"REV_AT_EPOCH":20932,"BSTAR":0.00015385,"MEAN_MOTION_DOT":3.46e-6,"MEAN_MOTION_DDOT":0},{"OBJECT_NAME":"H-2A R/B","OBJECT_ID":"2002-056E","EPOCH":"2026-03-02T20:48:26.290944","MEAN_MOTION":14.33755244,"ECCENTRICITY":0.0070074,"INCLINATION":98.319,"RA_OF_ASC_NODE":22.4928,"ARG_OF_PERICENTER":180.9596,"MEAN_ANOMALY":233.8258,"EPHEMERIS_TYPE":0,"CLASSIFICATION_TYPE":"U","NORAD_CAT_ID":27601,"ELEMENT_SET_NO":999,"REV_AT_EPOCH":21313,"BSTAR":0.00012189,"MEAN_MOTION_DOT":3.06e-6,"MEAN_MOTION_DDOT":0},{"OBJECT_NAME":"CZ-4B R/B","OBJECT_ID":"2003-049C","EPOCH":"2026-03-02T23:42:51.644736","MEAN_MOTION":14.55012299,"ECCENTRICITY":0.0047045,"INCLINATION":98.6872,"RA_OF_ASC_NODE":56.6302,"ARG_OF_PERICENTER":251.7963,"MEAN_ANOMALY":107.8108,"EPHEMERIS_TYPE":0,"CLASSIFICATION_TYPE":"U","NORAD_CAT_ID":28059,"ELEMENT_SET_NO":999,"REV_AT_EPOCH":18562,"BSTAR":0.00012588,"MEAN_MOTION_DOT":4.98e-6,"MEAN_MOTION_DDOT":0},{"OBJECT_NAME":"CZ-2C R/B","OBJECT_ID":"2004-012C","EPOCH":"2026-03-03T03:32:07.369728","MEAN_MOTION":15.63617877,"ECCENTRICITY":0.0013304,"INCLINATION":97.7247,"RA_OF_ASC_NODE":126.8234,"ARG_OF_PERICENTER":336.0543,"MEAN_ANOMALY":24.0094,"EPHEMERIS_TYPE":0,"CLASSIFICATION_TYPE":"U","NORAD_CAT_ID":28222,"ELEMENT_SET_NO":999,"REV_AT_EPOCH":20325,"BSTAR":0.0006313,"MEAN_MOTION_DOT":0.00059078,"MEAN_MOTION_DDOT":0},{"OBJECT_NAME":"SL-16 R/B","OBJECT_ID":"2004-021B","EPOCH":"2026-03-02T22:50:06.417888","MEAN_MOTION":14.14599719,"ECCENTRICITY":0.0003693,"INCLINATION":70.9992,"RA_OF_ASC_NODE":246.634,"ARG_OF_PERICENTER":23.2167,"MEAN_ANOMALY":336.9122,"EPHEMERIS_TYPE":0,"CLASSIFICATION_TYPE":"U","NORAD_CAT_ID":28353,"ELEMENT_SET_NO":999,"REV_AT_EPOCH":12188,"BSTAR":-2.8718e-5,"MEAN_MOTION_DOT":-1.03e-6,"MEAN_MOTION_DDOT":0},{"OBJECT_NAME":"CZ-4B R/B","OBJECT_ID":"2004-035C","EPOCH":"2026-03-03T02:28:20.240256","MEAN_MOTION":15.28920351,"ECCENTRICITY":0.0031819,"INCLINATION":97.3507,"RA_OF_ASC_NODE":96.4247,"ARG_OF_PERICENTER":355.3873,"MEAN_ANOMALY":4.7069,"EPHEMERIS_TYPE":0,"CLASSIFICATION_TYPE":"U","NORAD_CAT_ID":28415,"ELEMENT_SET_NO":999,"REV_AT_EPOCH":17890,"BSTAR":0.00035853,"MEAN_MOTION_DOT":0.00010152,"MEAN_MOTION_DDOT":0},{"OBJECT_NAME":"CZ-2C R/B","OBJECT_ID":"2004-046B","EPOCH":"2026-03-02T18:05:58.418304","MEAN_MOTION":14.26989516,"ECCENTRICITY":0.01394676,"INCLINATION":98.1988,"RA_OF_ASC_NODE":337.1695,"ARG_OF_PERICENTER":174.9003,"MEAN_ANOMALY":185.3638,"EPHEMERIS_TYPE":0,"CLASSIFICATION_TYPE":"U","NORAD_CAT_ID":28480,"ELEMENT_SET_NO":999,"REV_AT_EPOCH":10751,"BSTAR":7.2804101e-5,"MEAN_MOTION_DOT":1.56e-6,"MEAN_MOTION_DDOT":0},{"OBJECT_NAME":"ARIANE 5 R/B","OBJECT_ID":"2004-049H","EPOCH":"2026-03-03T00:43:59.737728","MEAN_MOTION":14.85250746,"ECCENTRICITY":0.0084424,"INCLINATION":98.2616,"RA_OF_ASC_NODE":230.2387,"ARG_OF_PERICENTER":13.4959,"MEAN_ANOMALY":346.8485,"EPHEMERIS_TYPE":0,"CLASSIFICATION_TYPE":"U","NORAD_CAT_ID":28499,"ELEMENT_SET_NO":999,"REV_AT_EPOCH":14480,"BSTAR":0.00011023,"MEAN_MOTION_DOT":9.43e-6,"MEAN_MOTION_DDOT":0}]
